{
  "type": "FeatureCollection",
  "features": [
    {
      "type": "Feature",
      "properties": {
        "norad_id": 37836,
        "name": "EUTELSAT 16A",
        "group": "eutelsat",
        "lat": -0.018801886843355955,
        "lon": 174.92156903206512,
        "alt_km": 35783.001835103794,
        "timestamp": "2025-12-04T05:42:43.049119+00:00",
        "meta_object_name": "EUTELSAT 16A",
        "meta_object_id": "2011-057A",
        "meta_epoch": "2025-12-03T19:13:38.940960",
        "meta_mean_motion": 1.00273731,
        "meta_eccentricity": 0.0006026,
        "meta_inclination": 0.059,
        "meta_ra_of_asc_node": 348.3337,
        "meta_arg_of_pericenter": 271.1066,
        "meta_mean_anomaly": 117.872,
        "meta_ephemeris_type": 0,
        "meta_classification_type": "U",
        "meta_norad_cat_id": 37836,
        "meta_element_set_no": 999,
        "meta_rev_at_epoch": 536,
        "meta_bstar": 0,
        "meta_mean_motion_dot": 1.22e-06,
        "meta_mean_motion_ddot": 0,
        "tle_line1": "1 37836U 11057A   25337.80114515  .00000122  00000+0  00000+0 0  9999",
        "tle_line2": "2 37836   0.0590 348.3337 0006026 271.1066 117.8720  1.00273731  5365"
      },
      "geometry": {
        "type": "Point",
        "coordinates": [
          174.92156903206512,
          -0.018801886843355955
        ]
      }
    },
    {
      "type": "Feature",
      "properties": {
        "norad_id": 38992,
        "name": "EUTELSAT 21B",
        "group": "eutelsat",
        "lat": -0.030456697732462158,
        "lon": -179.448713047411,
        "alt_km": 35784.26388580181,
        "timestamp": "2025-12-04T05:42:43.049130+00:00",
        "meta_object_name": "EUTELSAT 21B",
        "meta_object_id": "2012-062B",
        "meta_epoch": "2025-12-03T20:35:38.719392",
        "meta_mean_motion": 1.00273956,
        "meta_eccentricity": 0.00033734,
        "meta_inclination": 0.0676,
        "meta_ra_of_asc_node": 346.8433,
        "meta_arg_of_pericenter": 279.1801,
        "meta_mean_anomaly": 137.4436,
        "meta_ephemeris_type": 0,
        "meta_classification_type": "U",
        "meta_norad_cat_id": 38992,
        "meta_element_set_no": 999,
        "meta_rev_at_epoch": 4786,
        "meta_bstar": 0,
        "meta_mean_motion_dot": 1.47e-06,
        "meta_mean_motion_ddot": 0,
        "tle_line1": "1 38992U 12062B   25337.85808703  .00000147  00000+0  00000+0 0  9991",
        "tle_line2": "2 38992   0.0676 346.8433 0003373 279.1801 137.4436  1.00273956 47863"
      },
      "geometry": {
        "type": "Point",
        "coordinates": [
          -179.448713047411,
          -0.030456697732462158
        ]
      }
    },
    {
      "type": "Feature",
      "properties": {
        "norad_id": 39020,
        "name": "EUTELSAT 70B",
        "group": "eutelsat",
        "lat": -0.06911761025445637,
        "lon": -130.54135383688416,
        "alt_km": 35768.20488671743,
        "timestamp": "2025-12-04T05:42:43.049142+00:00",
        "meta_object_name": "EUTELSAT 70B",
        "meta_object_id": "2012-069A",
        "meta_epoch": "2025-12-03T18:55:38.052768",
        "meta_mean_motion": 1.00271658,
        "meta_eccentricity": 0.00043345,
        "meta_inclination": 0.0629,
        "meta_ra_of_asc_node": 2.7299,
        "meta_arg_of_pericenter": 239.4424,
        "meta_mean_anomaly": 185.1062,
        "meta_ephemeris_type": 0,
        "meta_classification_type": "U",
        "meta_norad_cat_id": 39020,
        "meta_element_set_no": 999,
        "meta_rev_at_epoch": 4755,
        "meta_bstar": 0,
        "meta_mean_motion_dot": -2.6e-07,
        "meta_mean_motion_ddot": 0,
        "tle_line1": "1 39020U 12069A   25337.78863487 -.00000026  00000+0  00000+0 0  9990",
        "tle_line2": "2 39020   0.0629   2.7299 0004334 239.4424 185.1062  1.00271658 47558"
      },
      "geometry": {
        "type": "Point",
        "coordinates": [
          -130.54135383688416,
          -0.06911761025445637
        ]
      }
    },
    {
      "type": "Feature",
      "properties": {
        "norad_id": 39122,
        "name": "EUTELSAT 117 WEST A",
        "group": "eutelsat",
        "lat": 0.04667488746474289,
        "lon": 42.2098941576482,
        "alt_km": 35796.28977174748,
        "timestamp": "2025-12-04T05:42:43.049154+00:00",
        "meta_object_name": "EUTELSAT 117 WEST A",
        "meta_object_id": "2013-012A",
        "meta_epoch": "2025-12-03T13:12:01.410912",
        "meta_mean_motion": 1.00274082,
        "meta_eccentricity": 0.000313,
        "meta_inclination": 0.0219,
        "meta_ra_of_asc_node": 309.0576,
        "meta_arg_of_pericenter": 308.0707,
        "meta_mean_anomaly": 256.726,
        "meta_ephemeris_type": 0,
        "meta_classification_type": "U",
        "meta_norad_cat_id": 39122,
        "meta_element_set_no": 999,
        "meta_rev_at_epoch": 4647,
        "meta_bstar": 0,
        "meta_mean_motion_dot": 5e-08,
        "meta_mean_motion_ddot": 0,
        "tle_line1": "1 39122U 13012A   25337.55001633  .00000005  00000+0  00000+0 0  9990",
        "tle_line2": "2 39122   0.0219 309.0576 0003130 308.0707 256.7260  1.00274082 46476"
      },
      "geometry": {
        "type": "Point",
        "coordinates": [
          42.2098941576482,
          0.04667488746474289
        ]
      }
    },
    {
      "type": "Feature",
      "properties": {
        "norad_id": 39163,
        "name": "EUTELSAT 7B",
        "group": "eutelsat",
        "lat": 0.008985686129764005,
        "lon": 165.93879762919008,
        "alt_km": 35801.1687484039,
        "timestamp": "2025-12-04T05:42:43.049167+00:00",
        "meta_object_name": "EUTELSAT 7B",
        "meta_object_id": "2013-022A",
        "meta_epoch": "2025-12-03T17:12:48.873312",
        "meta_mean_motion": 1.00269536,
        "meta_eccentricity": 0.00042199,
        "meta_inclination": 0.0678,
        "meta_ra_of_asc_node": 0.663,
        "meta_arg_of_pericenter": 310.3325,
        "meta_mean_anomaly": 27.0084,
        "meta_ephemeris_type": 0,
        "meta_classification_type": "U",
        "meta_norad_cat_id": 39163,
        "meta_element_set_no": 999,
        "meta_rev_at_epoch": 4599,
        "meta_bstar": 0,
        "meta_mean_motion_dot": 6.5e-07,
        "meta_mean_motion_ddot": 0,
        "tle_line1": "1 39163U 13022A   25337.71723233  .00000065  00000+0  00000+0 0  9997",
        "tle_line2": "2 39163   0.0678   0.6630 0004219 310.3325  27.0084  1.00269536 45993"
      },
      "geometry": {
        "type": "Point",
        "coordinates": [
          165.93879762919008,
          0.008985686129764005
        ]
      }
    },
    {
      "type": "Feature",
      "properties": {
        "norad_id": 39612,
        "name": "EXPRESS-AT1",
        "group": "eutelsat",
        "lat": -0.04143421316585677,
        "lon": -145.0253177447168,
        "alt_km": 35785.902175458454,
        "timestamp": "2025-12-04T05:42:43.049179+00:00",
        "meta_object_name": "EXPRESS-AT1",
        "meta_object_id": "2014-010A",
        "meta_epoch": "2025-12-03T21:56:38.683968",
        "meta_mean_motion": 1.00270078,
        "meta_eccentricity": 2.569e-05,
        "meta_inclination": 0.017,
        "meta_ra_of_asc_node": 302.0572,
        "meta_arg_of_pericenter": 219.2348,
        "meta_mean_anomaly": 296.8676,
        "meta_ephemeris_type": 0,
        "meta_classification_type": "U",
        "meta_norad_cat_id": 39612,
        "meta_element_set_no": 999,
        "meta_rev_at_epoch": 4286,
        "meta_bstar": 0,
        "meta_mean_motion_dot": 9.6e-07,
        "meta_mean_motion_ddot": 0,
        "tle_line1": "1 39612U 14010A   25337.91433662  .00000096  00000+0  00000+0 0  9994",
        "tle_line2": "2 39612   0.0170 302.0572 0000256 219.2348 296.8676  1.00270078 42861"
      },
      "geometry": {
        "type": "Point",
        "coordinates": [
          -145.0253177447168,
          -0.04143421316585677
        ]
      }
    },
    {
      "type": "Feature",
      "properties": {
        "norad_id": 39613,
        "name": "EXPRESS-AT2",
        "group": "eutelsat",
        "lat": -0.023809469626020163,
        "lon": -61.18315144363518,
        "alt_km": 35780.235789683415,
        "timestamp": "2025-12-04T05:42:43.049191+00:00",
        "meta_object_name": "EXPRESS-AT2",
        "meta_object_id": "2014-010B",
        "meta_epoch": "2025-12-03T21:34:38.771040",
        "meta_mean_motion": 1.00270417,
        "meta_eccentricity": 0.00014975,
        "meta_inclination": 0.0219,
        "meta_ra_of_asc_node": 333.2417,
        "meta_arg_of_pericenter": 319.3062,
        "meta_mean_anomaly": 243.9394,
        "meta_ephemeris_type": 0,
        "meta_classification_type": "U",
        "meta_norad_cat_id": 39613,
        "meta_element_set_no": 999,
        "meta_rev_at_epoch": 4254,
        "meta_bstar": 0,
        "meta_mean_motion_dot": 0,
        "meta_mean_motion_ddot": 0,
        "tle_line1": "1 39613U 14010B   25337.89905985  .00000000  00000+0  00000+0 0  9999",
        "tle_line2": "2 39613   0.0219 333.2417 0001497 319.3062 243.9394  1.00270417 42545"
      },
      "geometry": {
        "type": "Point",
        "coordinates": [
          -61.18315144363518,
          -0.023809469626020163
        ]
      }
    }
  ]
}